satname,norad_id,inclination_deg,eccentricity,mean_motion_rev_per_day,perigee_km,apogee_km,l1,l2
STARLINK-1413,45689,53.1565,0.0003198,15.32782239,465.3265556540009,469.70503518195073,1 45689U 20035AJ  26132.94266316  .00025592  00000+0  80590-3 0  9990,2 45689  53.1565 110.8090 0003198  73.6174 286.5179 15.32782239328730
STARLINK-1417,45693,53.0481,0.0005902,15.15561904,515.2023431537218,523.3440461474875,1 45693U 20035AN  26132.69115301  .00020282  00000+0  10692-2 0  9990,2 45693  53.0481 123.5183 0005902  56.7274 303.4283 15.15561904328597
STARLINK-1420,45695,53.0455,0.0006629,15.65444794,367.48520207909587,376.4344804712591,1 45695U 20035AQ  26132.54836039  .00051686  00000+0  50927-3 0  9992,2 45695  53.0455  71.3200 0006629  56.6823 303.4826 15.65444794329323
STARLINK-1422,45696,53.1556,0.0003509,15.32838471,464.94629226223515,469.75045389706156,1 45696U 20035AR  26132.22916488  .00030005  00000+0  94064-3 0  9997,2 45696  53.1556 114.0973 0003509  64.8827 295.2539 15.32838471328701
STARLINK-1351,45697,53.0448,0.0006564,15.63532851,373.02718280886256,381.8959325954147,1 45697U 20035AS  26132.73408834  .00073466  00000+0  77622-3 0  9994,2 45697  53.0448  70.5370 0006564  63.0077 297.1606 15.63532851329355
STARLINK-1400,45700,53.0434,0.0005376,15.61097787,380.84925257134364,388.12042357163773,1 45700U 20035AV  26132.97237737  .00072933  00000+0  84739-3 0  9992,2 45700  53.0434  71.5722 0005376  28.1291 332.0011 15.61097787329358
STARLINK-1403,45701,53.1546,0.0003048,15.31889226,468.08861463458925,472.2633462274607,1 45701U 20035AW  26132.61557944  .00035125  00000+0  11316-2 0  9991,2 45701  53.1546  99.6489 0003048  77.2042 282.9300 15.31889226328939
STARLINK-1407,45703,53.0299,0.0002494,15.69985118,357.25935608268355,360.61980988227424,1 45703U 20035AY  26132.91430276  .00042074  00000+0  34635-3 0  9995,2 45703  53.0299   0.1235 0002494 354.0639   6.0348 15.69985118330357
STARLINK-1411,45706,53.0352,0.0002309,15.79132876,331.3466821888087,334.44583734817024,1 45706U 20035BB  26133.00003472  .00077341  00000+0  42411-3 0  9999,2 45706  53.0352  23.4416 0002309 136.1032 276.1357 15.79132876  5940
STARLINK-1423,45710,53.0436,0.0007612,15.66336841,364.26053628831687,374.53298168299625,1 45710U 20035BF  26132.53090604  .00034388  00000+0  32932-3 0  9995,2 45710  53.0436  71.0323 0007612  28.4189 331.7240 15.66336841329315
STARLINK-1433,45711,53.0439,0.0007511,15.65933737,365.4857375916754,375.62362223324,1 45711U 20035BG  26132.95606058  .00034593  00000+0  33664-3 0  9999,2 45711  53.0439  67.4618 0007511  36.3433 323.8091 15.65933737329405
STARLINK-1434,45712,53.0502,0.000358,15.32290166,466.53003741161683,471.43257411854484,1 45712U 20035BH  26132.27253933  .00031938  00000+0  10175-2 0  9996,2 45712  53.0502  84.2037 0003580  30.6642 329.4566 15.32290166329124
STARLINK-1465,45731,53.0458,0.0001453,15.60232588,386.00169532780455,387.96763968438245,1 45731U 20038B   26132.39789584  .00066947  00000+0  80557-3 0  9999,2 45731  53.0458 275.0952 0001453 231.1725 128.9158 15.60232588326297
STARLINK-1471,45735,53.0446,0.0002739,15.52247612,408.3059856115842,412.0246176124083,1 45735U 20038F   26132.38953625  .00015257  00000+0  25410-3 0  9996,2 45735  53.0446 196.0331 0002739  55.1579 304.9687 15.52247612327413
STARLINK-1480,45741,53.048,0.0004299,15.61657978,379.9609471255126,385.77405879715934,1 45741U 20038M   26132.63798516  .00067096  00000+0  76411-3 0  9992,2 45741  53.0480 267.6089 0004299 300.3191  59.7396 15.61657978326434
STARLINK-1500,45744,53.0353,0.0002478,15.38035416,450.2268187298778,453.61179463546887,1 45744U 20038Q   26132.61780414  .00014406  00000+0  38887-3 0  9993,2 45744  53.0353 252.0889 0002478  94.0101 266.1185 15.38035416326641
STARLINK-1504,45746,53.0205,0.000311,15.57397062,393.0870989487212,397.30011058488526,1 45746U 20038S   26132.87863674  .00019917  00000+0  27294-3 0  9995,2 45746  53.0205 191.4786 0003110  30.5898 329.5294 15.57397062327503
STARLINK-1506,45747,53.0748,0.0003984,15.27882513,479.41027703460077,484.87654846748046,1 45747U 20038T   26132.66788637  .00004181  00000+0  16421-3 0  9995,2 45747  53.0748 266.0243 0003984  97.3489 262.7962 15.27882513326460
STARLINK-1464,45751,53.047,0.0001981,15.5218454,409.0043933908919,411.6939916203619,1 45751U 20038X   26132.74614154  .00051552  00000+0  83872-3 0  9999,2 45751  53.0470 258.2084 0001981 312.8436  47.2406 15.52184540326579
STARLINK-1477,45754,53.0498,0.00014,15.17740557,511.70627240931844,513.6356986452656,1 45754U 20038AA  26132.77774716  .00020626  00000+0  10221-2 0  9991,2 45754  53.0498 280.9181 0001400 165.6318 194.4717 15.17740557326253
STARLINK-1478,45755,53.0461,0.0002359,15.65513436,370.1702272725597,373.35482987013984,1 45755U 20038AB  26132.03337191  .00035551  00000+0  35202-3 0  9993,2 45755  53.0461 249.0477 0002359 340.8849  19.2077 15.65513436326629
STARLINK-1493,45759,53.0475,0.0005127,15.61090777,381.03787627037946,387.9722894621509,1 45759U 20038AF  26132.88596951  .00069367  00000+0  80686-3 0  9999,2 45759  53.0475 253.8100 0005127 290.2633  69.7828 15.61090777326638
STARLINK-1494,45760,53.041,0.0006734,15.92172479,291.7101329398856,300.69913625336085,1 45760U 20038AG  26133.00003472  .00217620  28845-4  64295-3 0  9994,2 45760  53.0410 187.9356 0006734 352.8134  12.6034 15.92172479  6034
STARLINK-1502,45764,53.0474,0.0005585,15.57449372,391.2591197273032,398.82476060346744,1 45764U 20038AL  26132.62100582  .00054028  00000+0  72419-3 0  9991,2 45764  53.0474 258.2199 0005585 257.0037 103.0351 15.57449372326566
STARLINK-1470,45772,53.0439,0.0002392,15.33373598,464.11856572233773,467.39268395406,1 45772U 20038AU  26132.00603521  .00026323  00000+0  81325-3 0  9996,2 45772  53.0439 239.1898 0002392 302.8925  57.1845 15.33373598326778
STARLINK-1482,45773,53.1584,0.0002454,15.35701207,457.16071601873045,460.51630359894534,1 45773U 20038AV  26132.70926458  .00028466  00000+0  81598-3 0  9993,2 45773  53.1584 252.4517 0002454 290.3434  69.7306 15.35701207326665
STARLINK-1496,45780,53.0462,0.0006685,15.59102382,385.72899795788817,394.77833627982636,1 45780U 20038BC  26132.26042459  .00066535  00000+0  83512-3 0  9999,2 45780  53.0462 231.0774 0006685 351.4400   8.6497 15.59102382326890
STARLINK-1513,45786,53.1595,0.0001077,15.31708168,469.97802552079975,471.453268380953,1 45786U 20038BJ  26132.60661573  .00001308  00000+0  53901-4 0  9994,2 45786  53.1595 253.9701 0001077  86.8797 273.2328 15.31708168326634
STARLINK-1522,46027,53.0633,0.0002226,15.12064624,528.3667939495963,531.4422540360774,1 46027U 20055A   26132.59452834  .00011603  00000+0  68285-3 0  9997,2 46027  53.0633 197.7964 0002226 336.2672  23.8217 15.12064624318540
STARLINK-1523,46028,53.1605,0.0001273,15.30191852,474.3669631711273,476.11183280205387,1 46028U 20055B   26132.85732198  .00001623  00000+0  66920-4 0  9997,2 46028  53.1605 188.6503 0001273  88.0420 272.0726 15.30191852318720
STARLINK-1526,46029,53.1579,0.0001138,15.30192903,474.4563459870078,476.0161737409544,1 46029U 20055C   26132.85100132  .00002812  00000+0  10704-3 0  9994,2 46029  53.1579 188.6910 0001138  99.5833 260.5297 15.30192903318710
STARLINK-1555,46032,53.1595,0.0001254,15.30203267,474.3459056372876,476.06472388983093,1 46032U 20055F   26132.44329682  .00001342  00000+0  57429-4 0  9999,2 46032  53.1595 190.5665 0001254  81.2751 278.8392 15.30203267318654
STARLINK-1556,46033,53.1602,9.35e-05,15.30212727,474.5362842892964,475.81785402022706,1 46033U 20055G   26132.88364673  .00002631  00000+0  10087-3 0  9997,2 46033  53.1602 188.5397 0000935  70.4311 289.6790 15.30212727318697
STARLINK-1557,46034,53.1609,0.0001302,15.30163046,474.4330888171671,476.21773042863333,1 46034U 20055H   26132.88682215  .00009427  00000+0  33037-3 0  9993,2 46034  53.1609 188.5220 0001302  75.8099 284.3046 15.30163046318696
STARLINK-1558,46035,53.1615,0.0001232,15.30202772,474.36246078420936,476.0511246947399,1 46035U 20055J   26132.43697816  .00001477  00000+0  61972-4 0  9995,2 46035  53.1615 190.6090 0001232  89.2313 270.8829 15.30202772318658
STARLINK-1560,46036,53.1606,0.0001105,15.30181229,474.51381521786607,476.02841841168174,1 46036U 20055K   26132.88049225  .00003335  00000+0  12475-3 0  9998,2 46036  53.1606 188.5588 0001105  88.7532 271.3596 15.30181229318721
STARLINK-1569,46039,53.1607,0.0001225,15.30199411,474.3772922237822,476.056363911659,1 46039U 20055N   26132.37481858  .00002146  00000+0  84576-4 0  9998,2 46039  53.1607 190.8879 0001225  67.8970 292.2160 15.30199411318632
STARLINK-1582,46043,53.1595,0.0001248,15.31709061,469.8582485111692,471.5677214674233,1 46043U 20055S   26132.41814405  .00005636  00000+0  19320-3 0  9997,2 46043  53.1595 190.3774 0001248  86.9782 273.1363 15.31709061318643
STARLINK-1591,46045,53.1589,0.000123,15.30186768,474.4116109068382,476.097545235044,1 46045U 20055U   26132.86469159 -.00000970  00000+0 -20653-4 0  9990,2 46045  53.1589 188.6178 0001230  90.9505 269.1637 15.30186768318691
STARLINK-1524,46047,53.1602,0.0001078,15.31682094,470.05505790572624,471.53168729405934,1 46047U 20055W   26132.90948618 -.00000382  00000+0 -54605-6 0  9992,2 46047  53.1602 175.3863 0001078  87.6168 272.4957 15.31682094318901
STARLINK-1527,46048,53.1605,0.0001268,15.31700738,469.8693579628916,471.6062326109768,1 46048U 20055X   26132.83955654 -.00000357  00000+0  25297-6 0  9999,2 46048  53.1605 175.6935 0001268  94.2941 265.8205 15.31700738318865
STARLINK-1540,46051,53.159,0.0001243,15.30196903,474.37244370703866,476.0761893303252,1 46051U 20055AA  26132.36583312  .00001280  00000+0  55341-4 0  9995,2 46051  53.1590 178.0726 0001243  96.6149 263.4993 15.30196903318833
STARLINK-1541,46052,53.1591,0.0001969,15.76581466,338.8118707461781,341.4575261410255,1 46052U 20055AB  26133.00003472  .00017416  00000+0  11090-3 0  9992,2 46052  53.1591 167.9743 0001969  67.2724 258.2555 15.76581466  5818
